COSMOS 2456 (730)       
1 36111U 09070A   26073.20989687  .00000053  00000+0  00000+0 0  9991
2 36111  64.9552  74.2106 0006389 306.0764 166.4975  2.13103787126400
COSMOS 2457 (733)       
1 36112U 09070B   26073.05274472  .00000052  00000+0  00000+0 0  9993
2 36112  64.9407  74.0614 0002113 199.4034 280.8951  2.13101225126407
COSMOS 2460 (732)       
1 36402U 10007C   26073.12581627 -.00000024  00000+0  00000+0 0  9998
2 36402  65.4743 317.6854 0001965  24.0874 153.1858  2.13106375124709
GPS BIIF-1  (PRN 25)    
1 36585U 10022A   26072.24126194  .00000016  00000+0  00000+0 0  9993
2 36585  54.2869 212.4253 0127257  65.9324 302.3690  2.00557725115671
BEIDOU-2 IGSO-1 (C06)   
1 36828U 10036A   26073.67984281 -.00000142  00000+0  00000+0 0  9996
2 36828  54.2922 163.8180 0054578 219.4923 137.9589  1.00250102 57149
BEIDOU-2 G4 (C04)       
1 37210U 10057A   26073.88544309 -.00000111  00000+0  00000+0 0  9997
2 37210   3.4112  69.4810 0008097 213.4129   8.3904  1.00272532 56344
BEIDOU-2 IGSO-2 (C07)   
1 37256U 10068A   26069.49439653 -.00000157  00000+0  00000+0 0  9996
2 37256  47.7215 273.0501 0047490 213.2827 326.5355  1.00257833 55804
BEIDOU-2 IGSO-3 (C08)   
1 37384U 11013A   26064.72099782 -.00000170  00000+0  00000+0 0  9990
2 37384  62.2726  41.1265 0035062 190.7769 297.3260  1.00293315 54626
GSAT-8 (GAGAN/PRN 127)  
1 37605U 11022A   26073.57938216  .00000085  00000+0  00000+0 0  9997
2 37605   1.8849  83.0143 0006862 216.9892 135.8320  1.00270917 52265
BEIDOU-2 IGSO-4 (C09)   
1 37763U 11038A   26073.76842311 -.00000094  00000+0  00000+0 0  9991
2 37763  54.5890 166.5285 0155368 231.0457 145.5369  1.00264319 53706
GSAT0101 (GALILEO-PFM)  
1 37846U 11060A   26073.40826530 -.00000081  00000+0  00000+0 0  9990
2 37846  57.0247 344.3347 0004100  11.0277 349.0106  1.70475751 89508
GSAT0102 (GALILEO-FM2)  
1 37847U 11060B   26060.06318653 -.00000106  00000+0  00000+0 0  9999
2 37847  57.0301 344.6971 0005422 341.2092 154.1953  1.70475778 89286
COSMOS 2476 (744)       
1 37867U 11064A   26073.41389750  .00000058  00000+0  00000+0 0  9999
2 37867  65.2155  76.0697 0025193 241.7016 295.7217  2.13103967111742
COSMOS 2477 (745)       
1 37868U 11064B   26069.19072576  .00000019  00000+0  00000+0 0  9992
2 37868  65.2195  76.2908 0022274 243.0435 115.1265  2.13102941111649
COSMOS 2475 (743)       
1 37869U 11064C   26073.10229134  .00000056  00000+0  00000+0 0  9994
2 37869  65.2287  76.1793 0028162 254.5882 179.9345  2.13101852111746
BEIDOU-2 IGSO-5 (C10)   
1 37948U 11073A   26073.51594189 -.00000092  00000+0  00000+0 0  9993
2 37948  47.8511 272.7142 0108909 221.0402 319.1616  1.00270407 52186
LUCH 5A (SDCM/PRN 140)  
1 37951U 11074B   26073.81550278 -.00000045  00000+0  00000+0 0  9990
2 37951   8.5128  75.1892 0003389 262.6163 295.2976  1.00268927 52105
